SL-3 R/B                
1 19046U 88032B   17060.95327512  .00001178  00000-0  92822-4 0  9993
2 19046  97.5434 110.8869 0038477 333.1145  26.8085 15.02142515556254
SL-16 R/B               
1 19120U 88039B   17060.88425199  .00000075  00000-0  58607-4 0  9993
2 19120  71.0149 191.6465 0022294 346.8103  13.2436 14.19166849490891
COSMOS 1953             
1 19210U 88050A   17060.73333381  .00000559  00000-0  37201-4 0  9995
2 19210  82.5181 137.5674 0011530 266.2631  93.7278 15.05152016540549
SL-8 R/B                
1 19257U 88053B   17060.48967949 -.00000052  00000-0 -86861-5 0  9991
2 19257  74.0466  54.5291 0021026 328.6779 182.8024 14.37344405503291
COSMOS 1975             
1 19573U 88093A   17060.63186667  .00000896  00000-0  62614-4 0  9996
2 19573  82.5181  89.5395 0013234 308.9730  51.0317 15.04058582543641
SL-14 R/B               
1 19574U 88093B   17060.95710959  .00000125  00000-0  12274-4 0  9991
2 19574  82.5294 245.3087 0023120 108.9546  51.3491 14.83204756512469
SL-16 R/B               
1 19650U 88102B   17061.03763236  .00000212  00000-0  13220-3 0  9991
2 19650  70.9972 240.4010 0014876 337.7613  22.2863 14.15751322460828
INTERCOSMOS 24          
1 20261U 89080A   17061.18508098  .00000231  00000-0  66386-4 0  9999
2 20261  82.5890  79.2866 1203932 343.5869  12.9207 12.55860150252532
SL-14 R/B               
1 20262U 89080C   17060.75222132  .00000098  00000-0  20814-4 0  9991
2 20262  82.5930 124.9113 1238059 141.4786 228.1613 12.48849827248315
DELTA 1 R/B             
1 20323U 89089B   17060.88798851  .00000100  00000-0  34931-4 0  9997
2 20323  97.0962  23.7465 0073236  58.6022 302.2312 14.48179422439197
DELTA 2 R/B(1)          
1 20453U 90008B   17061.54274370  .00001870  00000-0  10993-3 0  9999
2 20453  35.6253 136.7029 0290570   1.2928 358.8485 14.82883758432366
COSMOS 2058             
1 20465U 90010A   17061.17208096  .00000571  00000-0  46746-4 0  9999
2 20465  82.4926 350.7449 0014282 298.6036  61.3749 14.97440832469329
SL-14 R/B               
1 20466U 90010B   17060.69775654  .00000137  00000-0  14490-4 0  9994
2 20466  82.5023 113.1901 0019813 335.6605  24.3671 14.81267751461585
SL-14 R/B               
1 20511U 90018B   17061.49421594  .00000076  00000-0  68724-5 0  9995
2 20511  82.5212  53.4644 0019053 101.9654  14.3332 14.79926539456287
HST                     
1 20580U 90037B   17061.19633572  .00000900  00000-0  44813-4 0  9998
2 20580  28.4708 354.4551 0002955 103.1482  40.3671 15.08688009274114
SL-16 R/B               
1 20625U 90046B   17061.07967188 -.00000273  00000-0 -11700-3 0  9991
2 20625  71.0012  13.9330 0016916 270.1890  89.7294 14.14612912382684
COSMOS 2084             
1 20663U 90055A   17060.95891159  .00000335  00000-0  45658-4 0  9990
2 20663  62.7909 225.9951 0139462  79.5039 282.1733 14.91492065443810
SL-6 R/B(2)             
1 20666U 90055D   17060.77794307  .00000249  00000-0  38539-4 0  9994
2 20666  62.7839 145.6747 0135438  98.5648 263.0819 14.91845584445152
SL-8 R/B                
1 20775U 90078B   17060.64532323  .00003359  00000-0  17012-3 0  9991
2 20775  82.9308 136.3190 0589679 313.4775  41.8775 14.30114105333393
SL-8 R/B                
1 21088U 91006B   17061.17675473  .00000098  00000-0  84418-4 0  9996
2 21088  82.9398  99.7980 0021076 259.0383 160.9603 13.77039987310876
OKEAN-3                 
1 21397U 91039A   17060.91873437  .00000477  00000-0  44010-4 0  9991
2 21397  82.5194 240.2887 0016818 233.2990 126.6686 14.92420863372721
COSMOS 2151             
1 21422U 91042A   17061.21534317  .00000329  00000-0  30066-4 0  9991
2 21422  82.5035 348.2409 0012900 294.9383  65.0495 14.91781793392559
SL-14 R/B               
1 21423U 91042B   17060.94568447  .00000105  00000-0  10989-4 0  9996
2 21423  82.4915  61.6310 0016260 239.2734 120.6878 14.79679495365686
ERS-1                   
1 21574U 91050A   17061.49602790  .00000112  00000-0  51681-4 0  9995
2 21574  98.4485  10.4160 0031860 274.1344  85.6202 14.37563684342250
ARIANE 40 R/B           
1 21610U 91050F   17061.15855542  .00000025  00000-0  21806-4 0  9993
2 21610  98.6198 116.9869 0002093 255.6640 167.0434 14.40783405344704
INTERCOSMOS 25          
1 21819U 91086A   17061.54451192  .00000684  00000-0  13309-3 0  9998
2 21819  82.5477 127.1882 1525440 313.8788  34.5692 12.04404813 99446
SL-14 R/B               
1 21820U 91086B   17060.86453655  .00000365  00000-0  66145-4 0  9993
2 21820  82.5641 181.7734 1577525 139.1352 233.9481 11.93279134 93987
SL-8 R/B                
1 21876U 92008B   17060.91993038  .00000003  00000-0 -12330-4 0  9996
2 21876  82.9282 196.9221 0034095 335.5031 173.8600 13.75593235256403
SL-8 R/B                
1 21938U 92020B   17061.18281175 -.00000081  00000-0 -10018-3 0  9998
2 21938  82.9263  79.9099 0030293 128.9945 301.9053 13.75256686248580
SL-16 R/B               
1 22220U 92076B   17061.06849394 -.00000233  00000-0 -93338-4 0  9990
2 22220  70.9989 284.7300 0010606  73.5371  78.2679 14.16410418255602
SL-16 R/B               
1 22285U 92093B   17061.20724012  .00000149  00000-0  10156-3 0  9995
2 22285  71.0208  76.6974 0006470 283.1662  76.8738 14.15009491247403
COSMOS 2228             
1 22286U 92094A   17061.16912793  .00000356  00000-0  36189-4 0  9992
2 22286  82.5205 115.0079 0022127 115.2962 245.0551 14.87616609306589
SL-16 R/B               
1 22566U 93016B   17061.17428221  .00000285  00000-0  17183-3 0  9990
2 22566  71.0067 291.5533 0012214 291.3949  68.5870 14.14943086236138
COSMOS 2242             
1 22626U 93024A   17061.45707268  .00000352  00000-0  35824-4 0  9996
2 22626  82.5237 142.4422 0020625 113.7738 246.5645 14.87615704290287
SL-16 R/B               
1 22803U 93059B   17061.18967626  .00000135  00000-0  91130-4 0  9998
2 22803  70.9896 114.9065 0017821 196.0680 163.9881 14.16763671213128
ARIANE 40 R/B           
1 22830U 93061H   17060.58371730 -.00000068  00000-0 -79649-5 0  9998
2 22830  98.8891  73.5021 0009993 239.6818 272.9221 14.31410670222597
COSMOS 2278             
1 23087U 94023A   17060.86695880 -.00000316  00000-0 -14201-3 0  9995
2 23087  71.0511 223.2799 0008316   2.7004 357.4161 14.13734199179323
SL-16 R/B               
1 23088U 94023B   17060.65292534 -.00000191  00000-0 -74326-4 0  9998
2 23088  70.9999 147.7561 0005688 265.2186  94.8287 14.14648379180064
SL-16 R/B               
1 23343U 94074B   17060.75118698  .00000006  00000-0  84997-5 0  9996
2 23343  98.1670  96.6885 0008060  63.1757  61.7505 14.76689699200970
SL-16 R/B               
1 23405U 94077B   17060.48639249 -.00000237  00000-0 -97451-4 0  9994
2 23405  70.9822  81.8383 0001571 196.8875 163.2195 14.15194561150025
ERS-2                   
1 23560U 95021A   17060.89677082  .00003072  00000-0  14545-3 0  9998
2 23560  98.5476  38.8975 0002832 329.2865  30.8201 15.20281685159059
ARIANE 40+ R/B          
1 23561U 95021B   17061.09691888  .00000059  00000-0  35077-4 0  9998
2 23561  98.7905  59.8321 0006367 208.2032 193.3231 14.37797898145863
SL-16 R/B               
1 23705U 95058B   17060.93504696  .00000184  00000-0  11932-3 0  9992
2 23705  71.0194 254.0551 0010537 104.7651 255.4640 14.15094690101718
SL-16 R/B               
1 24298U 96051B   17060.79245939  .00000086  00000-0  72833-4 0  9999
2 24298  70.8481 288.4187 0015834 329.7833  30.2372 14.12482666 56658
ORBVIEW 2 (SEASTAR)     
1 24883U 97037A   17061.52537449  .00000097  00000-0  51040-4 0  9995
2 24883  98.5321 171.6539 0003373  74.6511 285.5046 14.33373519 36623
SL-16 R/B               
1 25400U 98043G   17060.95590820  .00000003  00000-0  19187-4 0  9990
2 25400  98.4762  12.6737 0008762 247.2240 112.8015 14.25404432969796
SL-16 R/B               
1 25407U 98045B   17061.10932694  .00000161  00000-0  10650-3 0  9996
2 25407  71.0093 266.4525 0007594 354.0664   6.0368 14.15757094961027
ISS (ZARYA)             
1 25544U 98067A   17061.55597447 -.00042462  00000-0 -63802-3 0  9993
2 25544  51.6402 209.8449 0007151 245.5209 160.4650 15.54078283 45179
SL-8 R/B                
1 25723U 99022C   17061.13684150  .00013251  00000-0  21785-3 0  9992
2 25723  48.4180  17.5717 0010747 241.0236 118.9631 15.52547744989853
CZ-4B R/B               
1 25732U 99025C   17061.10822934 -.00000014  00000-0  15221-4 0  9999
2 25732  98.9898  61.5648 0038025  37.3871  11.0350 14.17626224921466
OKEAN-O                 
1 25860U 99039A   17061.06515926  .00000097  00000-0  21600-4 0  9999
2 25860  98.1768  44.5334 0001832  97.9886 262.1531 14.76451491948021
SL-16 R/B               
1 25861U 99039B   17061.02918128  .00000081  00000-0  18429-4 0  9995
2 25861  98.0921  31.6996 0016980  68.4487 339.8601 14.78389059949947
TERRA                   
1 25994U 99068A   17061.21766025 -.00000008  00000-0  82657-5 0  9997
2 25994  98.2184 137.7430 0001234  91.8378 268.2964 14.57105489915099
SL-14 R/B               
1 26874U 01032B   17061.49646098  .00158465  93692-5  25463-3 0  9990
2 26874  82.4529 355.1407 0000165 163.3009 196.8276 16.03514306876681
ENVISAT                 
1 27386U 02009A   17061.50130986  .00000024  00000-0  21803-4 0  9998
2 27386  98.2463 111.1541 0001203  86.4516 273.6810 14.37889624785740
IDEFIX & ARIANE 42P R/B 
1 27422U 02021B   17060.97883642 -.00000054  00000-0 -51312-5 0  9991
2 27422  98.2294  67.1867 0012015 189.1480 170.9486 14.29251469771360
AQUA                    
1 27424U 02022A   17060.90804444  .00000155  00000-0  44403-4 0  9992
2 27424  98.2196   3.8069 0002124  83.5422 351.0206 14.57101455788604
CZ-4B R/B               
1 27432U 02024C   17061.03845414 -.00000001  00000-0  23248-4 0  9995
2 27432  98.9751  34.0635 0050139 336.7022  66.0070 14.14036894763657
MIDORI II (ADEOS-II)    
1 27597U 02056A   17061.49462829  .00000086  00000-0  52245-4 0  9998
2 27597  98.3568  35.6606 0000424  37.3230 322.7981 14.27270228740205
